NORAD_CAT_ID,OBJECT_NAME,OBJECT_TYPE,EPOCH,MEAN_MOTION,ECCENTRICITY,INCLINATION,RA_OF_ASC_NODE,ARG_OF_PERICENTER,MEAN_ANOMALY,BSTAR,MEAN_MOTION_DOT,MEAN_MOTION_DDOT,TLE_LINE0,TLE_LINE1,TLE_LINE2,SEMIMAJOR_AXIS,PERIOD,APOGEE,PERIGEE,DECAYED
54768.0,STARLINK-5444,PAYLOAD,2023-11-07 13:57:03,15.08821021,0.0001506,53.2165,259.2581,87.5382,272.5783,-0.00040825,-6.776e-05,0.0,0 STARLINK-5444,1 54768U 22175L   23311.58128724 -.00006776  00000-0 -40825-3 0  9994,2 54768  53.2165 259.2581 0001506  87.5382 272.5783 15.08821021 51335,6917.938,95.439,540.845,538.762,0.0
54768.0,STARLINK-5444,PAYLOAD,2023-11-08 05:50:53,15.08848988,0.0001433,53.2167,256.2845,102.5617,257.5535,-0.00012908,-2.342e-05,0.0,0 STARLINK-5444,1 54768U 22175L   23312.24367740 -.00002342  00000-0 -12908-3 0  9997,2 54768  53.2167 256.2845 0001433 102.5617 257.5535 15.08848988 49274,6917.853,95.437,540.709,538.727,0.0
54768.0,STARLINK-5444,PAYLOAD,2023-11-09 02:30:55,15.0883658,0.0001156,53.2169,252.4221,106.1361,253.9759,0.00071331,0.00011082,0.0,0 STARLINK-5444,1 54768U 22175L   23313.10481150  .00011082  00000-0  71331-3 0  9999,2 54768  53.2169 252.4221 0001156 106.1361 253.9759 15.08836580 49408,6917.891,95.438,540.556,538.956,0.0
54768.0,STARLINK-5444,PAYLOAD,2023-11-09 05:41:41,15.08843684,0.000139,53.2174,251.8223,98.5371,261.5778,0.00068085,0.00010565,0.0,0 STARLINK-5444,1 54768U 22175L   23313.23728862  .00010565  00000-0  68085-3 0  9994,2 54768  53.2174 251.8223 0001390  98.5371 261.5778 15.08843684 51585,6917.869,95.437,540.696,538.773,0.0
54768.0,STARLINK-5444,PAYLOAD,2023-11-10 02:21:42,15.08844752,0.0001466,53.2167,247.9569,100.9962,259.1195,0.00011109,1.481e-05,0.0,0 STARLINK-5444,1 54768U 22175L   23314.09840950  .00001481  00000-0  11109-3 0  9994,2 54768  53.2167 247.9569 0001466 100.9962 259.1195 15.08844752 49551,6917.866,95.437,540.745,538.717,0.0
54768.0,STARLINK-5444,PAYLOAD,2023-11-11 02:12:30,15.0884191,0.0001493,53.2177,243.497,111.8135,248.3016,-7.0256e-05,-1.406e-05,0.0,0 STARLINK-5444,1 54768U 22175L   23315.09201527 -.00001406  00000-0 -70256-4 0  9994,2 54768  53.2177 243.4970 0001493 111.8135 248.3016 15.08841910 49704,6917.875,95.437,540.772,538.707,0.0
54768.0,STARLINK-5444,PAYLOAD,2023-11-11 05:23:16,15.08844684,0.0001703,53.2175,242.9008,126.1121,234.0029,-8.7007e-05,-1.673e-05,0.0,0 STARLINK-5444,1 54768U 22175L   23315.22449322 -.00001673  00000-0 -87007-4 0  9994,2 54768  53.2175 242.9008 0001703 126.1121 234.0029 15.08844684 51885,6917.866,95.437,540.909,538.553,0.0
54768.0,STARLINK-5444,PAYLOAD,2023-11-12 11:35:35,15.08845863,0.0001456,53.2175,237.2514,91.9545,268.1614,5.8314e-05,6.4e-06,0.0,0 STARLINK-5444,1 54768U 22175L   23316.48305181  .00000640  00000-0  58314-4 0  9997,2 54768  53.2175 237.2514 0001456  91.9545 268.1614 15.08845863 49917,6917.862,95.437,540.735,538.72,0.0
54768.0,STARLINK-5444,PAYLOAD,2023-11-12 22:43:18,15.0883526,0.0001469,53.2177,235.1712,93.8219,266.2941,6.3465e-05,7.22e-06,0.0,0 STARLINK-5444,1 54768U 22175L   23316.94674048  .00000722  00000-0  63465-4 0  9993,2 54768  53.2177 235.1712 0001469  93.8219 266.2941 15.08835260 52140,6917.895,95.438,540.776,538.744,0.0
54768.0,STARLINK-5444,PAYLOAD,2023-11-13 11:26:23,15.08836891,0.0001375,53.2175,232.7902,96.454,263.6609,7.9021e-05,9.7e-06,0.0,0 STARLINK-5444,1 54768U 22175L   23317.47665860  .00000970  00000-0  79021-4 0  9994,2 54768  53.2175 232.7902 0001375  96.4540 263.6609 15.08836891 50066,6917.89,95.438,540.706,538.804,0.0
54768.0,STARLINK-5444,PAYLOAD,2023-11-14 03:20:14,15.0884306,0.0001552,53.2179,229.8175,89.8394,270.2776,3.1169e-05,2.08e-06,0.0,0 STARLINK-5444,1 54768U 22175L   23318.13905762  .00000208  00000-0  31169-4 0  9991,2 54768  53.2179 229.8175 0001552  89.8394 270.2776 15.08843060 52325,6917.871,95.437,540.81,538.662,0.0
54768.0,STARLINK-5444,PAYLOAD,2023-11-15 03:11:00,15.08850372,0.0001411,53.2183,225.356,86.3617,273.7537,8.1971e-05,1.017e-05,0.0,0 STARLINK-5444,1 54768U 22175L   23319.13264879  .00001017  00000-0  81971-4 0  9994,2 54768  53.2183 225.3560 0001411  86.3617 273.7537 15.08850372 50317,6917.849,95.437,540.69,538.738,0.0
54768.0,STARLINK-5444,PAYLOAD,2023-11-16 03:01:48,15.08839855,0.0001565,53.2182,220.8946,93.469,266.6481,1.3398e-05,-7.5e-07,0.0,0 STARLINK-5444,1 54768U 22175L   23320.12625979 -.00000075  00000-0  13398-4 0  9999,2 54768  53.2182 220.8946 0001565  93.4690 266.6481 15.08839855 50462,6917.881,95.438,540.828,538.663,0.0
54768.0,STARLINK-5444,PAYLOAD,2023-11-17 10:49:31,15.08823567,0.0001602,53.2173,214.9503,102.7633,257.3538,0.00022336,3.267e-05,0.0,0 STARLINK-5444,1 54768U 22175L   23321.45106384  .00003267  00000-0  22336-3 0  9996,2 54768  53.2173 214.9503 0001602 102.7633 257.3538 15.08823567 50663,6917.931,95.439,540.904,538.687,0.0
54768.0,STARLINK-5444,PAYLOAD,2023-11-17 17:11:04,15.0883591,0.0001598,53.2173,213.7623,96.511,263.6064,-1.3402e-05,-5.01e-06,0.0,0 STARLINK-5444,1 54768U 22175L   23321.71602378 -.00000501  00000-0 -13402-4 0  9994,2 54768  53.2173 213.7623 0001598  96.5110 263.6064 15.08835910 52860,6917.893,95.438,540.863,538.652,0.0
54768.0,STARLINK-5444,PAYLOAD,2023-11-17 23:32:37,15.08834589,0.0001538,53.2177,212.5744,88.2925,271.8243,-3.3366e-05,-8.19e-06,0.0,0 STARLINK-5444,1 54768U 22175L   23321.98098587 -.00000819  00000-0 -33366-4 0  9997,2 54768  53.2177 212.5744 0001538  88.2925 271.8243 15.08834589 52907,6917.897,95.438,540.826,538.698,0.0
54768.0,STARLINK-5444,PAYLOAD,2023-11-18 17:01:51,15.08855468,0.0001665,53.2192,209.3018,96.4209,263.6973,-0.00011332,-2.092e-05,0.0,0 STARLINK-5444,1 54768U 22175L   23322.70961868 -.00002092  00000-0 -11332-3 0  9992,2 54768  53.2192 209.3018 0001665  96.4209 263.6973 15.08855468 50859,6917.833,95.437,540.85,538.546,0.0
54768.0,STARLINK-5444,PAYLOAD,2023-11-19 08:55:42,15.08816832,0.0001697,53.2164,206.3243,91.0274,269.0912,0.00044662,6.823e-05,0.0,0 STARLINK-5444,1 54768U 22175L   23323.37202370  .00006823  00000-0  44662-3 0  9998,2 54768  53.2164 206.3243 0001697  91.0274 269.0912 15.08816832 50959,6917.951,95.439,540.99,538.642,0.0
54768.0,STARLINK-5444,PAYLOAD,2023-11-19 20:03:24,15.08833455,0.0001559,53.2175,204.2469,90.2716,269.8454,5.7839e-05,6.32e-06,0.0,0 STARLINK-5444,1 54768U 22175L   23323.83570321  .00000632  00000-0  57839-4 0  9996,2 54768  53.2175 204.2469 0001559  90.2716 269.8454 15.08833455 51025,6917.9,95.438,540.844,538.687,0.0
54768.0,STARLINK-5444,PAYLOAD,2023-11-19 21:38:47,15.08833692,0.0001708,53.2171,203.9466,98.0754,262.0432,4.4398e-05,4.18e-06,0.0,0 STARLINK-5444,1 54768U 22175L   23323.90194294  .00000418  00000-0  44398-4 0  9993,2 54768  53.2171 203.9466 0001708  98.0754 262.0432 15.08833692 53192,6917.9,95.438,540.946,538.583,0.0
54768.0,STARLINK-5444,PAYLOAD,2023-11-20 08:46:29,15.08838427,0.000152,53.2167,201.8685,91.1837,268.9329,1.2916e-05,-8.2e-07,0.0,0 STARLINK-5444,1 54768U 22175L   23324.36562166 -.00000082  00000-0  12916-4 0  9990,2 54768  53.2167 201.8685 0001520  91.1837 268.9329 15.08838427 53264,6917.885,95.438,540.802,538.699,0.0
54768.0,STARLINK-5444,PAYLOAD,2023-11-20 21:29:34,15.08869233,0.0001526,53.2165,199.4898,97.4691,262.6475,-0.0004893,-8.073e-05,0.0,0 STARLINK-5444,1 54768U 22175L   23324.89553958 -.00008073  00000-0 -48930-3 0  9990,2 54768  53.2165 199.4898 0001526  97.4691 262.6475 15.08869233 53344,6917.791,95.436,540.712,538.6,0.0
54768.0,STARLINK-5444,PAYLOAD,2023-11-20 23:04:58,15.08838148,0.0001633,53.2161,199.1924,92.7562,267.3617,-5.4972e-05,-1.163e-05,0.0,0 STARLINK-5444,1 54768U 22175L   23324.96178519 -.00001163  00000-0 -54972-4 0  9991,2 54768  53.2161 199.1924 0001633  92.7562 267.3617 15.08838148 51193,6917.886,95.438,540.881,538.621,0.0
54768.0,STARLINK-5444,PAYLOAD,2023-11-21 14:58:49,15.08834023,0.0001438,53.2165,196.2185,90.4675,269.6482,3.1869e-05,2.19e-06,0.0,0 STARLINK-5444,1 54768U 22175L   23325.62418653  .00000219  00000-0  31869-4 0  9990,2 54768  53.2165 196.2185 0001438  90.4675 269.6482 15.08834023 53451,6917.899,95.438,540.758,538.769,0.0
54768.0,STARLINK-5444,PAYLOAD,2023-11-21 21:20:22,15.08827188,0.0001602,53.2166,195.0291,92.8698,267.2477,0.00014121,1.959e-05,0.0,0 STARLINK-5444,1 54768U 22175L   23325.88914847  .00001959  00000-0  14121-3 0  9997,2 54768  53.2166 195.0291 0001602  92.8698 267.2477 15.08827188 53497,6917.92,95.438,540.893,538.676,0.0
54768.0,STARLINK-5444,PAYLOAD,2023-11-22 00:31:08,15.08840865,0.0001563,53.2162,194.4338,87.1759,272.9412,2.2545e-05,7.1e-07,0.0,0 STARLINK-5444,1 54768U 22175L   23326.02162485  .00000071  00000-0  22545-4 0  9991,2 54768  53.2162 194.4338 0001563  87.1759 272.9412 15.08840865 51351,6917.878,95.437,540.824,538.661,0.0
54768.0,STARLINK-5444,PAYLOAD,2023-11-22 21:11:08,15.08846773,0.0001575,53.2163,190.5681,83.3146,276.8025,0.00013159,1.807e-05,0.0,0 STARLINK-5444,1 54768U 22175L   23326.88273857  .00001807  00000-0  13159-3 0  9999,2 54768  53.2163 190.5681 0001575  83.3146 276.8025 15.08846773 53642,6917.86,95.437,540.814,538.635,0.0
54768.0,STARLINK-5444,PAYLOAD,2023-11-23 00:21:54,15.08851765,0.0001585,53.2164,189.9733,86.4751,273.6422,0.00020918,3.044e-05,0.0,0 STARLINK-5444,1 54768U 22175L   23327.01521303  .00003044  00000-0  20918-3 0  9993,2 54768  53.2164 189.9733 0001585  86.4751 273.6422 15.08851765 51506,6917.844,95.437,540.806,538.613,0.0
54768.0,STARLINK-5444,PAYLOAD,2023-11-23 14:40:24,15.08831364,0.0001485,53.2163,187.2974,82.1169,277.9992,2.689e-05,1.4e-06,0.0,0 STARLINK-5444,1 54768U 22175L   23327.61139266  .00000140  00000-0  26890-4 0  9992,2 54768  53.2163 187.2974 0001485  82.1169 277.9992 15.08831364 53759,6917.907,95.438,540.799,538.744,0.0
54768.0,STARLINK-5444,PAYLOAD,2023-11-23 19:26:33,15.08830915,0.0001536,53.2156,186.4053,78.9864,281.1301,-1.6311e-05,-5.47e-06,0.0,0 STARLINK-5444,1 54768U 22175L   23327.81011149 -.00000547  00000-0 -16311-4 0  9993,2 54768  53.2156 186.4053 0001536  78.9864 281.1301 15.08830915 51628,6917.908,95.438,540.836,538.711,0.0
